STARLINK-2022           
1 47643U 21012Z   24064.42963050 -.00000491  00000+0 -14062-4 0  9997
2 47643  53.0533 112.3305 0001428  93.4569 266.6583 15.06396696169442
